0 ISS DEB
1 39230U 98067CY  13282.34478795  .00367653  00000-0  29155-2 0   726
2 39230 051.6439 259.7567 0015824 127.4122 233.2448 15.69468747  6983
0 ISS DEB
1 39230U 98067CY  13282.98135247  .00440752  00000-0  33645-2 0   730
2 39230 051.6248 256.4895 0012059 095.4811 266.1355 15.70234490  7087
0 ISS DEB
1 39230U 98067CY  13285.33287263  .00663013  00000-0  42894-2 0   775
2 39230 051.6402 244.4643 0014665 128.7442 231.5123 15.73487285  7457
0 ISS DEB
1 39230U 98067CY  13285.90436271  .00661456  00000-0  41654-2 0   786
2 39230 051.6398 241.5124 0014128 132.1580 228.0620 15.74129196  7547
0 ISS DEB
1 39230U 98067CY  13286.28521292  .00674439  00000-0  41559-2 0   796
2 39230 051.6405 239.5532 0014261 135.6892 224.5253 15.74595678  7600
0 ISS DEB
1 39230U 98067CY  13286.85626374  .00701470  00000-0  41738-2 0   803
2 39230 051.6405 236.6159 0013960 136.7550 223.4602 15.75334385  7693
0 ISS DEB
1 39230U 98067CY  13286.98312707  .00707204  00000-0  41749-2 0   813
2 39230 051.6402 235.9630 0013904 137.3120 222.8977 15.75500417  7716
0 ISS DEB
1 39230U 98067CY  13287.30022564  .00723548  00000-0  41837-2 0   827
2 39230 051.6406 234.3350 0014281 139.6521 220.5642 15.75925885  7760
0 ISS DEB
1 39230U 98067CY  13287.80739748  .00755809  00000-0  42242-2 0   838
2 39230 051.6409 231.7151 0012931 142.9631 217.2555 15.76634314  7842
0 ISS DEB
1 39230U 98067CY  13288.25098766  .00918995  00000-0  48357-2 0   847
2 39230 051.6421 229.4662 0018300 152.6411 207.9078 15.77479354  7913
0 ISS DEB
1 39230U 98067CY  13289.20067753  .01038597  00000-0  50295-2 0   852
2 39230 051.6387 224.5323 0015304 157.8991 203.3218 15.79482008  8059
0 ISS DEB
1 39230U 98067CY  13289.83294031  .01091453  00000-0  49769-2 0   867
2 39230 051.6374 221.2579 0015309 162.5875 197.5664 15.80691394  8164
0 ISS DEB
1 39230U 98067CY  13290.21217012  .01147499  00000-0  50216-2 0   877
2 39230 051.6370 219.2926 0015612 165.2395 194.9094 15.81464006  8221
0 ISS DEB
1 39230U 98067CY  13290.27535645  .01162735  00000-0  50470-2 0   881
2 39230 051.6365 218.9656 0015980 165.7634 194.3911 15.81602318  8233
0 ISS DEB
1 39230U 98067CY  13290.27535645  .01162735  00000-0  50470-2 0   892
2 39230 051.6365 218.9656 0015980 165.7634 194.3911 15.81602318  8233
0 ISS DEB
1 39230U 98067CY  13290.71752170  .01455184  00000-0  66932-2 0   922
2 39230 051.6324 216.6732 0014324 164.0731 196.1178 15.82698145  8306
0 ISS DEB
1 39230U 98067CY  13290.78064692  .01246995  00000-0  51013-2 0   937
2 39230 051.6364 216.3386 0015746 169.1077 191.0276 15.82709490  8310
0 ISS DEB
1 39230U 98067CY  13290.90691459  .01266699  00000-0  51047-2 0   949
2 39230 051.6357 215.6816 0015579 169.3993 190.7330 15.82993606  8338
0 ISS DEB
1 39230U 98067CY  13291.15936060  .01333002  00000-0  51671-2 0   954
2 39230 051.6369 214.3765 0019305 174.5885 185.5338 15.83613907  8377
0 ISS DEB
1 39230U 98067CY  13291.28555461  .01370027  00000-0  52233-2 0   964
2 39230 051.6377 213.7127 0017281 174.7856 185.3371 15.83934014  8394
0 ISS DEB
1 39230U 98067CY  13291.85309511  .01484379  00000-0  53355-2 0   973
2 39230 051.6395 210.7461 0015447 180.3015 179.7982 15.85419899  8480
0 ISS DEB
1 39230U 98067CY  13292.16817147  .01552746  00000-0  53304-2 0   986
2 39230 051.6390 209.0976 0015042 180.7512 179.3474 15.86267631  8538
0 ISS DEB
1 39230U 98067CY  13292.23116591  .01568059  00000-0  53311-2 0   992
2 39230 051.6390 208.7684 0015028 180.9808 179.1180 15.86442517  8545
0 ISS DEB
1 39230U 98067CY  13292.86074303  .01468092  99429-3  52516-2 0  1006
2 39230 051.6382 205.4746 0015319 183.3438 176.7470 15.88209300  8647
0 ISS DEB
1 39230U 98067CY  13293.17525406  .01533182  11171-2  52319-2 0  1018
2 39230 051.6372 203.8242 0015980 186.7460 173.3323 15.89160344  8695
0 ISS DEB
1 39230U 98067CY  13293.23813348  .01547680  11458-2  52322-2 0  1021
2 39230 051.6372 203.4937 0015805 187.3207 172.7559 15.89357683  8704
0 ISS DEB
1 39230U 98067CY  13293.86650407  .01691829  14679-2  51750-2 0  1033
2 39230 051.6384 200.1911 0015839 192.1292 167.9313 15.91393658  8808
0 ISS DEB
1 39230U 98067CY  13294.18037352  .01782044  17016-2  51630-2 0  1043
2 39230 051.6370 198.5316 0015603 193.7588 166.3011 15.92502520  8850
0 ISS DEB
1 39230U 98067CY  13294.55671285  .01910666  20851-2  51635-2 0  1053
2 39230 051.6371 196.5425 0015015 196.5029 163.5526 15.93935218  8910
0 ISS DEB
1 39230U 98067CY  13294.87005581  .02035345  25246-2  51596-2 0  1061
2 39230 051.6367 194.8842 0015611 199.2761 160.7720 15.95222993  8965
0 ISS DEB
1 39230U 98067CY  13295.18313716  .02177849  31274-2  51643-2 0  1076
2 39230 051.6370 193.2254 0015310 199.8198 160.2298 15.96611270  9018
0 ISS DEB
1 39230U 98067CY  13295.93329356  .02612945  60283-2  52034-2 0  1085
2 39230 051.6321 189.2231 0012945 210.3855 149.6458 16.00524107  9134
